[{"OBJECT_NAME":"FFLY02","OBJECT_ID":"2025-188H","EPOCH":"2026-03-09T22:44:52.619136","MEAN_MOTION":14.92826675,"ECCENTRICITY":0.00145762,"INCLINATION":97.7427,"RA_OF_ASC_NODE":145.8314,"ARG_OF_PERICENTER":94.3001,"MEAN_ANOMALY":265.9884,"EPHEMERIS_TYPE":0,"CLASSIFICATION_TYPE":"U","NORAD_CAT_ID":65322,"ELEMENT_SET_NO":999,"REV_AT_EPOCH":2910,"BSTAR":0.00025589032,"MEAN_MOTION_DOT":2.597e-5,"MEAN_MOTION_DDOT":0},{"OBJECT_NAME":"STARLINK-36167","OBJECT_ID":"2025-293J","EPOCH":"2026-03-09T16:00:03.000096","MEAN_MOTION":14.98353371,"ECCENTRICITY":0.00035327,"INCLINATION":69.9998,"RA_OF_ASC_NODE":94.3623,"ARG_OF_PERICENTER":273.6486,"MEAN_ANOMALY":249.1448,"EPHEMERIS_TYPE":0,"CLASSIFICATION_TYPE":"U","NORAD_CAT_ID":67011,"ELEMENT_SET_NO":999,"REV_AT_EPOCH":533,"BSTAR":-0.0036450478,"MEAN_MOTION_DOT":-0.00043345,"MEAN_MOTION_DDOT":0}]
